CYGFM04                 
1 41885U 16078B   25151.55283777  .00012787  00000+0  28852-3 0  9998
2 41885  34.9347 213.1811 0009432 188.3146 171.7418 15.42313281469721
CYGFM02                 
1 41886U 16078C   25151.56284494  .00013260  00000+0  29080-3 0  9998
2 41886  34.9433 213.4580 0011057 181.9604 178.1074 15.43134462469900
CYGFM01                 
1 41887U 16078D   25151.63424195  .00011736  00000+0  27869-3 0  9990
2 41887  34.9430 236.8840 0009323 153.2996 206.8205 15.40799332469652
CYGFM08                 
1 41888U 16078E   25151.56033599  .00012372  00000+0  28482-3 0  9996
2 41888  34.9459 222.2638 0011419 176.3071 183.7734 15.41697583469732
CYGFM07                 
1 41890U 16078G   25151.57203446  .00012357  00000+0  27937-3 0  9997
2 41890  34.9473 212.2650 0009798 193.9259 166.1191 15.42256792469741
CYGFM03                 
1 41891U 16078H   25151.57611076  .00012288  00000+0  28003-3 0  9998
2 41891  34.9426 213.8402 0008696 179.9282 180.1440 15.42029390469721
FENGYUN 3D              
1 43010U 17072A   25151.86274439  .00000107  00000+0  72493-4 0  9998
2 43010  98.9616 115.5781 0002584  71.2049 288.9407 14.19627531390884
NOAA 20 (JPSS-1)        
1 43013U 17073A   25151.81706277  .00000068  00000+0  52950-4 0  9999
2 43013  98.7414  90.5062 0000956  24.1774 335.9447 14.19540796390365
GOES 17                 
1 43226U 18022A   25151.88031012 -.00000098  00000+0  00000+0 0  9993
2 43226   0.0285 181.6815 0002771 283.0226 357.4074  1.00271826 26616
FENGYUN 2H              
1 43491U 18050A   25151.74359109 -.00000132  00000+0  00000+0 0  9992
2 43491   2.0500  83.5972 0000680 121.2294  31.5106  1.00268729 25681
METOP-C                 
1 43689U 18087A   25151.84588854  .00000121  00000+0  75422-4 0  9995
2 43689  98.7159 212.2883 0001565 144.1945 215.9338 14.21483002340656
GEO-KOMPSAT-2A          
1 43823U 18100A   25151.75329634 -.00000349  00000+0  00000+0 0  9998
2 43823   0.0552 122.3048 0001814 313.4986 213.1424  1.00271001 23837
METEOR-M2 2             
1 44387U 19038A   25151.85651240  .00000090  00000+0  58814-4 0  9990
2 44387  98.8738 129.4521 0002175  61.3613 298.7784 14.24206011307017
ARKTIKA-M 1             
1 47719U 21016A   25151.18255506  .00000006  00000+0  00000+0 0  9998
2 47719  63.1483 109.8604 7101839 268.6180  16.6193  2.00597475 31125
