[
  {
    "OBJECT_NAME": "CYGFM04",
    "OBJECT_ID": "2016-078B",
    "EPOCH": "2025-05-31T13:16:05.183328",
    "MEAN_MOTION": 15.42313281,
    "ECCENTRICITY": 0.0009432,
    "INCLINATION": 34.9347,
    "RA_OF_ASC_NODE": 213.1811,
    "ARG_OF_PERICENTER": 188.3146,
    "MEAN_ANOMALY": 171.7418,
    "EPHEMERIS_TYPE": 0,
    "CLASSIFICATION_TYPE": "U",
    "NORAD_CAT_ID": 41885,
    "ELEMENT_SET_NO": 999,
    "REV_AT_EPOCH": 46972,
    "BSTAR": 0.00028852,
    "MEAN_MOTION_DOT": 0.00012787,
    "MEAN_MOTION_DDOT": 0
  },
  {
    "OBJECT_NAME": "CYGFM02",
    "OBJECT_ID": "2016-078C",
    "EPOCH": "2025-05-31T13:30:29.802816",
    "MEAN_MOTION": 15.43134462,
    "ECCENTRICITY": 0.0011057,
    "INCLINATION": 34.9433,
    "RA_OF_ASC_NODE": 213.458,
    "ARG_OF_PERICENTER": 181.9604,
    "MEAN_ANOMALY": 178.1074,
    "EPHEMERIS_TYPE": 0,
    "CLASSIFICATION_TYPE": "U",
    "NORAD_CAT_ID": 41886,
    "ELEMENT_SET_NO": 999,
    "REV_AT_EPOCH": 46990,
    "BSTAR": 0.0002908,
    "MEAN_MOTION_DOT": 0.0001326,
    "MEAN_MOTION_DDOT": 0
  },
  {
    "OBJECT_NAME": "CYGFM01",
    "OBJECT_ID": "2016-078D",
    "EPOCH": "2025-05-31T15:13:18.504480",
    "MEAN_MOTION": 15.40799332,
    "ECCENTRICITY": 0.0009323,
    "INCLINATION": 34.943,
    "RA_OF_ASC_NODE": 236.884,
    "ARG_OF_PERICENTER": 153.2996,
    "MEAN_ANOMALY": 206.8205,
    "EPHEMERIS_TYPE": 0,
    "CLASSIFICATION_TYPE": "U",
    "NORAD_CAT_ID": 41887,
    "ELEMENT_SET_NO": 999,
    "REV_AT_EPOCH": 46965,
    "BSTAR": 0.00027869,
    "MEAN_MOTION_DOT": 0.00011736,
    "MEAN_MOTION_DDOT": 0
  },
  {
    "OBJECT_NAME": "CYGFM08",
    "OBJECT_ID": "2016-078E",
    "EPOCH": "2025-05-31T13:26:53.029536",
    "MEAN_MOTION": 15.41697583,
    "ECCENTRICITY": 0.0011419,
    "INCLINATION": 34.9459,
    "RA_OF_ASC_NODE": 222.2638,
    "ARG_OF_PERICENTER": 176.3071,
    "MEAN_ANOMALY": 183.7734,
    "EPHEMERIS_TYPE": 0,
    "CLASSIFICATION_TYPE": "U",
    "NORAD_CAT_ID": 41888,
    "ELEMENT_SET_NO": 999,
    "REV_AT_EPOCH": 46973,
    "BSTAR": 0.00028482,
    "MEAN_MOTION_DOT": 0.00012372,
    "MEAN_MOTION_DDOT": 0
  },
  {
    "OBJECT_NAME": "CYGFM07",
    "OBJECT_ID": "2016-078G",
    "EPOCH": "2025-05-31T13:43:43.777344",
    "MEAN_MOTION": 15.42256792,
    "ECCENTRICITY": 0.0009798,
    "INCLINATION": 34.9473,
    "RA_OF_ASC_NODE": 212.265,
    "ARG_OF_PERICENTER": 193.9259,
    "MEAN_ANOMALY": 166.1191,
    "EPHEMERIS_TYPE": 0,
    "CLASSIFICATION_TYPE": "U",
    "NORAD_CAT_ID": 41890,
    "ELEMENT_SET_NO": 999,
    "REV_AT_EPOCH": 46974,
    "BSTAR": 0.00027937,
    "MEAN_MOTION_DOT": 0.00012357,
    "MEAN_MOTION_DDOT": 0
  },
  {
    "OBJECT_NAME": "CYGFM03",
    "OBJECT_ID": "2016-078H",
    "EPOCH": "2025-05-31T13:49:35.969664",
    "MEAN_MOTION": 15.4202939,
    "ECCENTRICITY": 0.0008696,
    "INCLINATION": 34.9426,
    "RA_OF_ASC_NODE": 213.8402,
    "ARG_OF_PERICENTER": 179.9282,
    "MEAN_ANOMALY": 180.144,
    "EPHEMERIS_TYPE": 0,
    "CLASSIFICATION_TYPE": "U",
    "NORAD_CAT_ID": 41891,
    "ELEMENT_SET_NO": 999,
    "REV_AT_EPOCH": 46972,
    "BSTAR": 0.00028003,
    "MEAN_MOTION_DOT": 0.00012288,
    "MEAN_MOTION_DDOT": 0
  },
  {
    "OBJECT_NAME": "FENGYUN 3D",
    "OBJECT_ID": "2017-072A",
    "EPOCH": "2025-05-31T20:42:21.115296",
    "MEAN_MOTION": 14.19627531,
    "ECCENTRICITY": 0.0002584,
    "INCLINATION": 98.9616,
    "RA_OF_ASC_NODE": 115.5781,
    "ARG_OF_PERICENTER": 71.2049,
    "MEAN_ANOMALY": 288.9407,
    "EPHEMERIS_TYPE": 0,
    "CLASSIFICATION_TYPE": "U",
    "NORAD_CAT_ID": 43010,
    "ELEMENT_SET_NO": 999,
    "REV_AT_EPOCH": 39088,
    "BSTAR": 7.2493e-05,
    "MEAN_MOTION_DOT": 1.07e-06,
    "MEAN_MOTION_DDOT": 0
  },
  {
    "OBJECT_NAME": "NOAA 20 (JPSS-1)",
    "OBJECT_ID": "2017-073A",
    "EPOCH": "2025-05-31T19:36:34.223328",
    "MEAN_MOTION": 14.19540796,
    "ECCENTRICITY": 9.56e-05,
    "INCLINATION": 98.7414,
    "RA_OF_ASC_NODE": 90.5062,
    "ARG_OF_PERICENTER": 24.1774,
    "MEAN_ANOMALY": 335.9447,
    "EPHEMERIS_TYPE": 0,
    "CLASSIFICATION_TYPE": "U",
    "NORAD_CAT_ID": 43013,
    "ELEMENT_SET_NO": 999,
    "REV_AT_EPOCH": 39036,
    "BSTAR": 5.295e-05,
    "MEAN_MOTION_DOT": 6.8e-07,
    "MEAN_MOTION_DDOT": 0
  },
  {
    "OBJECT_NAME": "GOES 17",
    "OBJECT_ID": "2018-022A",
    "EPOCH": "2025-05-31T21:07:38.794368",
    "MEAN_MOTION": 1.00271826,
    "ECCENTRICITY": 0.0002771,
    "INCLINATION": 0.0285,
    "RA_OF_ASC_NODE": 181.6815,
    "ARG_OF_PERICENTER": 283.0226,
    "MEAN_ANOMALY": 357.4074,
    "EPHEMERIS_TYPE": 0,
    "CLASSIFICATION_TYPE": "U",
    "NORAD_CAT_ID": 43226,
    "ELEMENT_SET_NO": 999,
    "REV_AT_EPOCH": 2661,
    "BSTAR": 0,
    "MEAN_MOTION_DOT": -9.8e-07,
    "MEAN_MOTION_DDOT": 0
  },
  {
    "OBJECT_NAME": "FENGYUN 2H",
    "OBJECT_ID": "2018-050A",
    "EPOCH": "2025-05-31T17:50:46.270176",
    "MEAN_MOTION": 1.00268729,
    "ECCENTRICITY": 6.8e-05,
    "INCLINATION": 2.05,
    "RA_OF_ASC_NODE": 83.5972,
    "ARG_OF_PERICENTER": 121.2294,
    "MEAN_ANOMALY": 31.5106,
    "EPHEMERIS_TYPE": 0,
    "CLASSIFICATION_TYPE": "U",
    "NORAD_CAT_ID": 43491,
    "ELEMENT_SET_NO": 999,
    "REV_AT_EPOCH": 2568,
    "BSTAR": 0,
    "MEAN_MOTION_DOT": -1.32e-06,
    "MEAN_MOTION_DDOT": 0
  },
  {
    "OBJECT_NAME": "METOP-C",
    "OBJECT_ID": "2018-087A",
    "EPOCH": "2025-05-31T20:18:04.769856",
    "MEAN_MOTION": 14.21483002,
    "ECCENTRICITY": 0.0001565,
    "INCLINATION": 98.7159,
    "RA_OF_ASC_NODE": 212.2883,
    "ARG_OF_PERICENTER": 144.1945,
    "MEAN_ANOMALY": 215.9338,
    "EPHEMERIS_TYPE": 0,
    "CLASSIFICATION_TYPE": "U",
    "NORAD_CAT_ID": 43689,
    "ELEMENT_SET_NO": 999,
    "REV_AT_EPOCH": 34065,
    "BSTAR": 7.5422e-05,
    "MEAN_MOTION_DOT": 1.21e-06,
    "MEAN_MOTION_DDOT": 0
  },
  {
    "OBJECT_NAME": "GEO-KOMPSAT-2A",
    "OBJECT_ID": "2018-100A",
    "EPOCH": "2025-05-31T18:04:44.803776",
    "MEAN_MOTION": 1.00271001,
    "ECCENTRICITY": 0.0001814,
    "INCLINATION": 0.0552,
    "RA_OF_ASC_NODE": 122.3048,
    "ARG_OF_PERICENTER": 313.4986,
    "MEAN_ANOMALY": 213.1424,
    "EPHEMERIS_TYPE": 0,
    "CLASSIFICATION_TYPE": "U",
    "NORAD_CAT_ID": 43823,
    "ELEMENT_SET_NO": 999,
    "REV_AT_EPOCH": 2383,
    "BSTAR": 0,
    "MEAN_MOTION_DOT": -3.49e-06,
    "MEAN_MOTION_DDOT": 0
  },
  {
    "OBJECT_NAME": "METEOR-M2 2",
    "OBJECT_ID": "2019-038A",
    "EPOCH": "2025-05-31T20:33:22.671360",
    "MEAN_MOTION": 14.24206011,
    "ECCENTRICITY": 0.0002175,
    "INCLINATION": 98.8738,
    "RA_OF_ASC_NODE": 129.4521,
    "ARG_OF_PERICENTER": 61.3613,
    "MEAN_ANOMALY": 298.7784,
    "EPHEMERIS_TYPE": 0,
    "CLASSIFICATION_TYPE": "U",
    "NORAD_CAT_ID": 44387,
    "ELEMENT_SET_NO": 999,
    "REV_AT_EPOCH": 30701,
    "BSTAR": 5.8814e-05,
    "MEAN_MOTION_DOT": 9e-07,
    "MEAN_MOTION_DDOT": 0
  },
  {
    "OBJECT_NAME": "ARKTIKA-M 1",
    "OBJECT_ID": "2021-016A",
    "EPOCH": "2025-05-31T04:22:52.757184",
    "MEAN_MOTION": 2.00597475,
    "ECCENTRICITY": 0.7101839,
    "INCLINATION": 63.1483,
    "RA_OF_ASC_NODE": 109.8604,
    "ARG_OF_PERICENTER": 268.618,
    "MEAN_ANOMALY": 16.6193,
    "EPHEMERIS_TYPE": 0,
    "CLASSIFICATION_TYPE": "U",
    "NORAD_CAT_ID": 47719,
    "ELEMENT_SET_NO": 999,
    "REV_AT_EPOCH": 3112,
    "BSTAR": 0,
    "MEAN_MOTION_DOT": 6e-08,
    "MEAN_MOTION_DDOT": 0
  }
]